184P/Lovas,e,4.5726,173.2566,186.4293,3.794161,0.1333615,0.55107662,348.9066,08/04.0/2020,2000,g 13.5,4.0
# From MPC109593
185P/Petriew,e,13.9991,214.0956,181.8818,3.099416,0.1806277,0.69894985,166.0906,08/04.0/2020,2000,g 15.0,4.0
# From MPEC 2020-N31
186P/Garradd,e,28.5575,326.7545,283.8135,5.010259,0.0878848,0.12425094,40.3630,08/04.0/2020,2000,g  7.5,4.0
# From MPC104795
187P/LINEAR,e,13.6347,109.9235,132.1648,4.573147,0.1007816,0.15234821,81.5434,08/04.0/2020,2000,g  9.0,4.0
# From MPC106349
188P/LINEAR-Mueller,e,10.5206,358.9566,26.5827,4.375929,0.1076710,0.41530006,136.0989,08/04.0/2020,2000,g 11.5,4.0
# From MPC106349
189P/NEAT,e,20.0738,281.7405,16.2579,2.947177,0.1948026,0.58874213,212.9867,08/04.0/2020,2000,g 19.0,4.0
# From MPEC 2020-N31
190P/Mueller,e,2.1742,335.5743,50.2805,4.235562,0.1130674,0.52086674,178.5922,08/04.0/2020,2000,g 13.0,4.0
# From MPEC 2020-N31
191P/McNaught,e,8.8433,98.2381,283.9457,3.637582,0.1420643,0.38630094,327.6190,08/04.0/2020,2000,g 13.0,4.0
# From MPC 75724
192P/Shoemaker-Levy,e,24.5378,51.6400,312.9131,6.478413,0.0597725,0.77286279,276.9229,08/04.0/2020,2000,g 15.0,4.0
# From MPC 92277
193P/LINEAR-NEAT,e,10.6868,335.1899,8.2433,3.576086,0.1457445,0.39408103,303.6421,08/04.0/2020,2000,g 14.0,4.0
# From MPC 98566
194P/LINEAR,e,11.1933,351.5255,130.8080,3.985416,0.1238778,0.57824595,200.1871,08/04.0/2020,2000,g 16.0,4.0
# From MPC 75724
195P/Hill,e,36.3401,243.1034,249.4442,6.499246,0.0594853,0.31323204,251.6884,08/04.0/2020,2000,g  8.5,4.0
# From MPC 92985
196P/Tichy,e,19.2996,24.2013,12.3023,3.798282,0.1331445,0.42860340,251.1939,08/04.0/2020,2000,g 13.5,4.0
# From MPC 94676
197P/LINEAR,e,25.5464,66.3935,188.7385,2.867365,0.2029924,0.62986329,186.3644,08/04.0/2020,2000,g 16.5,2.0
# From NK 1596
198P/ODAS,e,1.3386,358.2510,69.2459,3.600195,0.1442830,0.44314299,86.4586,08/04.0/2020,2000,g  9.0,4.0
# From MPC 75725
199P/Shoemaker,e,24.9350,92.3974,191.5905,5.897484,0.0688183,0.50609241,284.3977,08/04.0/2020,2000,g 10.0,4.0
# From MPC118098
200P/Larsen,e,12.1036,234.8028,134.0174,4.938065,0.0898191,0.33225884,33.4343,08/04.0/2020,2000,g  9.0,4.0
# From MPC 93588
201P/LONEOS,e,5.7367,19.8197,41.4203,3.358122,0.1601619,0.63739981,312.6629,08/04.0/2020,2000,g 14.0,4.0
# From MPC103849
202P/Scotti,e,2.0337,181.0246,275.8810,4.002396,0.1230904,0.28204317,190.6265,08/04.0/2020,2000,g 13.5,4.0
# From MPEC 2019-TG9
203P/Korlevic,e,2.9733,290.3487,154.8560,4.671209,0.0976248,0.31501927,14.8451,08/04.0/2020,2000,g 14.5,2.0
# From MPC 98566
204P/LINEAR-NEAT,e,6.6384,108.8406,355.0318,3.624273,0.1428475,0.48315853,240.6580,08/04.0/2020,2000,g 14.0,4.0
# From MPC 98566
205P/Giacobini,e,15.3023,179.6006,154.1911,3.542752,0.1478063,0.56788221,282.0358,08/04.0/2020,2000,g 13.0,4.0
# From MPC 75725
206P/Barnard-Boattini,e,33.6306,202.3582,189.4449,3.488496,0.1512679,0.55143191,327.8606,08/04.0/2020,2000,g 19.0,4.0
# From MPC 75725
207P/NEAT,e,10.1534,199.3671,272.1574,3.865097,0.1297070,0.76020719,194.2438,08/04.0/2020,2000,g 16.0,4.0
# From MPC101100
208P/McMillan,e,4.4093,36.3623,310.3964,4.046969,0.1210624,0.37339176,180.7615,08/04.0/2020,2000,g 12.5,4.0
# From MPC 90771
209P/LINEAR,e,21.2580,62.7677,152.4842,2.960346,0.1935042,0.67320517,80.9318,08/04.0/2020,2000,g 17.0,2.0
# From MPC105242
210P/Christensen,e,10.2619,93.8351,345.9064,3.165513,0.1749999,0.83321235,20.6635,08/04.0/2020,2000,g 13.5,4.0
# From MPC 96868
211P/Hill,e,18.9219,117.1395,4.1430,3.548452,0.1474503,0.34264273,243.2358,08/04.0/2020,2000,g 12.5,4.0
# From MPC104795
212P/NEAT,e,22.5550,98.6381,14.1752,3.880322,0.1289444,0.58963993,183.9586,08/04.0/2020,2000,g 17.0,2.0
# From MPC114608
213P/Van Ness,e,10.3827,311.3000,5.6079,3.348185,0.1608755,0.40812927,167.9434,08/04.0/2020,2000,g 10.5,4.0
# From MPC 92986
214P/LINEAR,e,15.1853,348.2593,190.2799,3.616229,0.1433244,0.48592861,247.7225,08/04.0/2020,2000,g 13.0,4.0
# From MPC118098
215P/NEAT,e,10.5815,56.6834,262.0854,4.327807,0.1094718,0.16702578,28.4273,08/04.0/2020,2000,g 11.0,4.0
# From MPC100284
216P/LINEAR,e,9.0519,359.8180,151.3633,3.870010,0.1294601,0.44560988,197.7391,08/04.0/2020,2000,g 13.0,4.0
# From MPC108598
217P/LINEAR,e,12.8645,125.4785,246.8444,3.951618,0.1254705,0.68832967,139.7856,08/04.0/2020,2000,g 12.0,4.0
# From MPEC 2020-N31
218P/LINEAR,e,2.7255,175.9757,59.7853,3.093833,0.1811168,0.62185809,348.9922,08/04.0/2020,2000,g 16.0,4.0
# From MPC100284
219P/LINEAR,e,11.5294,230.9944,107.3654,3.650779,0.1412946,0.35361347,177.9537,08/04.0/2020,2000,g 11.0,4.0
# From MPEC 2020-N31
220P/McNaught,e,8.1280,150.1063,180.5437,3.116304,0.1791613,0.50189401,336.9505,08/04.0/2020,2000,g 15.0,4.0
# From MPC 93589
221P/LINEAR,e,11.4260,229.7195,40.0523,3.457557,0.1533028,0.49282962,283.2024,08/04.0/2020,2000,g 14.5,4.0
# From MPC 92277
222P/LINEAR,e,5.0952,6.7936,346.2299,2.899372,0.1996403,0.71443562,85.0250,08/04.0/2020,2000,g 20.0,4.0
# From MPEC 2020-HN5
223P/Skiff,e,27.0178,346.7740,37.8194,4.159141,0.1161980,0.41571398,64.4554,08/04.0/2020,2000,g 12.0,4.0
# From MPC 75727
224P/LINEAR-NEAT,e,13.3193,40.3349,16.7854,3.438131,0.1546039,0.40831085,238.3487,08/04.0/2020,2000,g 15.5,4.0
# From MPC 75727
225P/LINEAR,e,21.3509,14.1845,3.8662,3.650948,0.1412849,0.63768290,204.6417,08/04.0/2020,2000,g 18.0,4.0
# From MPC106349
226P/Pigott-LINEAR-Kowalski,e,44.0092,54.0042,341.0494,3.767835,0.1347616,0.52822189,192.7442,08/04.0/2020,2000,g 12.5,4.0
# From MPC102956
227P/Catalina-LINEAR,e,6.5080,49.3585,90.1762,3.568985,0.1461797,0.50621527,166.1838,08/04.0/2020,2000,g 16.5,2.0
# From MPEC 2020-L06
228P/LINEAR,e,7.9101,30.9835,115.2778,4.173190,0.1156117,0.17670029,16.9355,08/04.0/2020,2000,g 14.5,2.0
# From MPC106349
229P/Gibbs,e,26.0868,157.9005,223.9753,3.931201,0.1264492,0.37658600,148.1054,08/04.0/2020,2000,g 13.0,4.0
# From MPC110497
230P/LINEAR,e,15.5145,107.0217,313.6216,3.449355,0.1538499,0.54828876,269.0227,08/04.0/2020,2000,g 13.0,4.0
# From MPEC 2020-N31
231P/LINEAR-NEAT,e,12.3345,133.0221,42.9143,4.019159,0.1223211,0.24766607,50.8899,08/04.0/2020,2000,g 14.5,2.0
# From MPC112394
232P/Hill,e,14.6314,56.0200,53.4753,4.482056,0.1038695,0.33425304,50.4621,08/04.0/2020,2000,g 11.5,4.0
# From MPC 92986
233P/La Sagra,e,11.2839,74.9273,27.0606,3.030666,0.1868086,0.41179252,349.0386,08/04.0/2020,2000,g 15.0,4.0
# From MPC110497
234P/LINEAR,e,11.5251,179.5669,357.3656,3.802720,0.1329115,0.25414240,154.5371,08/04.0/2020,2000,g 12.0,4.0
# From MPC110497
235P/LINEAR,e,8.8904,203.8395,333.4901,3.981137,0.1240776,0.31990744,108.1219,08/04.0/2020,2000,g 12.0,4.0
# From MPC107688
236P/LINEAR,e,16.3341,245.6509,119.1996,3.731100,0.1367567,0.50851446,135.0476,08/04.0/2020,2000,g 14.0,4.0
# From MPC109593
237P/LINEAR,e,14.0203,245.4133,25.1804,3.512416,0.1497253,0.43471261,208.3157,08/04.0/2020,2000,g 14.5,2.0
# From MPC107688
238P/Read,e,1.2645,51.6430,324.6834,3.163541,0.1751636,0.25232681,242.2982,08/04.0/2020,2000,g 14.5,4.0
# From MPC112394
239P/LINEAR,e,11.3016,255.9141,220.4422,4.471371,0.1042421,0.63056074,59.6242,08/04.0/2020,2000,g 17.5,2.0
# From MPC109593
240P/NEAT,e,23.5056,74.9218,351.9981,3.868087,0.1295566,0.44872074,105.1289,08/04.0/2020,2000,g 11.0,4.0
# From MPC 75729
241P/LINEAR,e,21.1048,305.4826,111.3126,4.927264,0.0901146,0.61051536,327.9608,08/04.0/2020,2000,g 13.5,4.0
# From MPC 81861
242P/Spahr,e,32.4818,180.4729,246.2108,5.478049,0.0768715,0.27792883,235.8819,08/04.0/2020,2000,g  8.0,4.0
# From MPC111774
243P/NEAT,e,7.6412,87.6546,283.5207,3.831499,0.1314168,0.35980641,93.1606,08/04.0/2020,2000,g 12.5,4.0
# From MPC 88331
244P/Scotti,e,2.2592,353.9902,92.8702,4.895476,0.0909938,0.19840245,284.1110,08/04.0/2020,2000,g  9.0,4.0
# From MPC111774
245P/WISE,e,21.1972,316.6500,316.8243,4.042729,0.1212529,0.45759635,109.9970,08/04.0/2020,2000,g 14.0,4.0
# From MPEC 2020-N31
246P/NEAT,e,15.9873,78.7475,176.2741,4.015538,0.1224866,0.28676297,335.1707,08/04.0/2020,2000,g 10.5,4.0
# From MPC112394
247P/LINEAR,e,13.6555,54.0116,47.4869,3.970293,0.1245863,0.62447714,76.1357,08/04.0/2020,2000,g 16.5,2.0
# From MPC 75730
248P/Gibbs,e,6.3468,207.7508,209.9076,5.990873,0.0672154,0.63789902,234.2665,08/04.0/2020,2000,g 14.0,4.0
# From MPEC 2020-N31
249P/LINEAR,e,8.3969,239.1763,65.6056,2.761969,0.2147216,0.82014478,7.6232,08/04.0/2020,2000,g 15.5,4.0
# From MPC110497
250P/Larson,e,13.2312,73.6482,45.9388,3.753884,0.1355136,0.40387701,123.8614,08/04.0/2020,2000,g 14.5,4.0
# From MPC104795
251P/LINEAR,e,23.4043,219.3993,31.2643,3.509890,0.1498870,0.50548372,167.0413,08/04.0/2020,2000,g 16.5,2.0
# From MPC102956
252P/LINEAR,e,10.4103,190.9524,343.3139,3.049525,0.1850784,0.67200168,296.8982,08/04.0/2020,2000,g 17.5,4.0
# From MPC112394
253P/PANSTARRS,e,4.9426,146.8768,230.6423,3.467831,0.1526220,0.41345018,125.0232,08/04.0/2020,2000,g 14.5,4.0
# From MPC 81473
254P/McNaught,e,32.5716,129.1735,219.4723,4.615048,0.0994122,0.32027013,354.3719,08/04.0/2020,2000,g 11.0,4.0
# From NK 2214
255P/Levy,e,14.2358,276.9460,185.0161,2.930940,0.1964236,0.72169883,211.1776,08/04.0/2020,2000,g  9.0,4.0
# From MPC 84027
256P/LINEAR,e,27.6354,81.3507,124.3051,4.636260,0.0987307,0.41837113,266.1754,08/04.0/2020,2000,g 14.0,2.0
# From MPEC 2020-N31
257P/Catalina,e,20.2212,207.7428,117.6456,3.764113,0.1349615,0.43082018,354.9060,08/04.0/2020,2000,g 11.5,4.0
# From MPC 79655
258P/PANSTARRS,e,6.7460,126.2482,26.1050,4.401502,0.1067340,0.20901301,4.8521,08/04.0/2020,2000,g 13.0,4.0
# From MPC106349
259P/Garradd,e,15.8882,51.4607,257.5773,2.730892,0.2183973,0.33846728,239.1525,08/04.0/2020,2000,g 15.5,4.0
# From MPEC 2020-L06
260P/McNaught,e,15.0531,349.3457,18.4008,3.622296,0.1429645,0.60893155,47.0373,08/04.0/2020,2000,g 13.5,4.0
# From MPEC 2019-TG9
261P/Larson,e,6.0761,291.1620,67.1297,3.489566,0.1511983,0.42304439,62.3312,08/04.0/2020,2000,g 14.0,4.0
# From MPC 82322
262P/McNaught-Russell,e,29.1725,217.9045,170.9996,6.876433,0.0546587,0.81512673,153.2641,08/04.0/2020,2000,g 13.5,4.0
# From MPC 89018
